INTERCOSMOS 24          
1 20261U 89080A   25204.84399953  .00000806  00000+0  22773-3 0  9996
2 20261  82.6029 253.2177 1191242 103.7086 269.9233 12.59093966637585
SL-14 R/B               
1 20262U 89080C   25204.39090044  .00000132  00000+0  36443-4 0  9998
2 20262  82.5963 320.4342 1230785 348.9175   8.6894 12.50319173631498
DELTA 1 R/B             
1 20323U 89089B   25204.67060469  .00000310  00000+0  85447-4 0  9990
2 20323  97.0992  83.2700 0070543 125.3155 235.4666 14.50417823883061
ARIANE 40 R/B           
1 20443U 90005H   25204.61532726  .00000268  00000+0  99141-4 0  9995
2 20443  98.3440 266.6521 0010473 167.3313 192.8141 14.39659165859849
DELTA 2 R/B(1)          
1 20453U 90008B   25204.45671239  .00034030  00000+0  73349-3 0  9999
2 20453  35.6076 211.2852 0134461 327.4075  31.8410 15.34467563890694
COSMOS 2058             
1 20465U 90010A   25204.58694874  .00003302  00000+0  20662-3 0  9997
2 20465  82.4751 272.6337 0008736  52.9471 307.2555 15.09075235907660
SL-14 R/B               
1 20466U 90010B   25204.88619705  .00000429  00000+0  49482-4 0  9990
2 20466  82.5038 122.2391 0019317 338.3422  21.6974 14.83287624915629
SL-14 R/B               
1 20511U 90018B   25204.75196326  .00000394  00000+0  46746-4 0  9995
2 20511  82.5199  77.0516 0017618 122.6173 237.6745 14.81869530909766
HST                     
1 20580U 90037B   25204.55103244  .00005934  00000+0  21854-3 0  9994
2 20580  28.4664 158.3688 0002122 130.0802 229.9979 15.25631458738507
SL-16 R/B               
1 20625U 90046B   25204.58159712 -.00000083  00000+0 -18310-4 0  9994
2 20625  70.9983  59.0637 0016229 289.7279  70.2093 14.14967108815980
COSMOS 2084             
1 20663U 90055A   25204.85246801  .00003090  00000+0  23089-3 0  9999
2 20663  62.7909  34.9833 0055422 158.3567 201.9893 15.03839780901898
SL-6 R/B(2)             
1 20666U 90055D   25204.61519883  .00002193  00000+0  18000-3 0  9999
2 20666  62.7853 311.9513 0020776 201.9850 158.0360 15.02160152903764
SL-8 R/B                
1 20775U 90078B   25204.76480499  .00021392  00000+0  69492-3 0  9994
2 20775  82.9079  95.6239 0400313  58.7304 305.2471 14.79244449775335
SL-8 R/B                
1 21088U 91006B   25204.90007775  .00000100  00000+0  85545-4 0  9994
2 21088  82.9449 340.2411 0021492 318.6029 154.6388 13.77465696732842
OKEAN-3                 
1 21397U 91039A   25204.52055350  .00003326  00000+0  24514-3 0  9994
2 21397  82.5159 198.5398 0015774  36.8632 323.3675 15.02922585830592
COSMOS 2151             
1 21422U 91042A   25204.80052649  .00001693  00000+0  13750-3 0  9991
2 21422  82.4987 304.2084 0013993 111.3914 248.8803 14.98958389850041
SL-14 R/B               
1 21423U 91042B   25204.62266344  .00000356  00000+0  42330-4 0  9993
2 21423  82.4915  74.9689 0015560 274.5281  85.4155 14.81567994819158
ERS-1                   
1 21574U 91050A   25204.57102023  .00000245  00000+0  93528-4 0  9998
2 21574  98.7923 212.0147 0032494 159.8815 200.3660 14.39217644782774
ARIANE 40 R/B           
1 21610U 91050F   25204.61158599  .00000310  00000+0  10584-3 0  9996
2 21610  98.2373 260.0003 0004133  61.9715 298.1893 14.42659546785966
INTERCOSMOS 25          
1 21819U 91086A   25204.74636544  .00000316  00000+0  62734-4 0  9992
2 21819  82.6038  88.3586 1489384 250.1850  93.3010 12.11122466468972
SL-8 R/B                
1 21876U 92008B   25204.58778032  .00000117  00000+0  10391-3 0  9991
2 21876  82.9251  78.1662 0035918  55.7553   6.2086 13.75937816677911
SL-8 R/B                
1 21938U 92020B   25204.62259399  .00000073  00000+0  60357-4 0  9998
2 21938  82.9330 323.8805 0028358 214.9571 155.8782 13.75516248669643
USA 81                  
1 21949U 92023A   25204.58610742  .00000168  00000+0  54902-4 0  9995
2 21949  85.0059 263.5772 0002602  79.4056 280.7430 14.32254744 61992
COSMOS 2219             
1 22219U 92076A   25204.53697637 -.00000145  00000+0 -51167-4 0  9994
2 22219  71.0615 137.0842 0018519 198.1769 161.8694 14.14037792685987
SL-16 R/B               
1 22220U 92076B   25204.58657935 -.00000216  00000+0 -83829-4 0  9997
2 22220  71.0016 310.9589 0010542  82.8084 288.0768 14.16811555689382
COSMOS 2221             
1 22236U 92080A   25204.88831964  .00001757  00000+0  15827-3 0  9999
2 22236  82.5061 137.9917 0013065 238.2622 121.7327 14.94992489767648
SL-16 R/B               
1 22285U 92093B   25204.48168267 -.00000121  00000+0 -37620-4 0  9994
2 22285  71.0216 125.4195 0006343 287.8537  72.1894 14.15399048680729
COSMOS 2228             
1 22286U 92094A   25204.84696205  .00001902  00000+0  16745-3 0  9994
2 22286  82.5177  96.1902 0018518 357.8097   2.3041 14.95844869762903
SL-16 R/B               
1 22566U 93016B   25204.57000453 -.00000218  00000+0 -87651-4 0  9990
2 22566  71.0090 336.3851 0012053 304.8452  55.1537 14.15260673669750
COSMOS 2242             
1 22626U 93024A   25204.87076029  .00002022  00000+0  18084-3 0  9997
2 22626  82.5205 125.3348 0016824   0.9712 359.1539 14.95293441746507
SL-16 R/B               
1 22803U 93059B   25204.50743970 -.00000114  00000+0 -32390-4 0  9997
2 22803  70.9905 134.4102 0018042 206.3059 153.7150 14.17180308647060
ARIANE 40 R/B           
1 22830U 93061H   25204.43062194  .00000190  00000+0  85725-4 0  9996
2 22830  98.5252 272.4164 0009733 239.1393 120.8834 14.32679775661275
COSMOS 2278             
1 23087U 94023A   25204.58835955  .00000036  00000+0  43577-4 0  9997
2 23087  71.0533 294.3964 0008333   5.3112 354.8098 14.14302711612412
SL-16 R/B               
1 23088U 94023B   25204.38726898 -.00000204  00000+0 -80807-4 0  9997
2 23088  70.9978 192.4253 0005637 279.5307  80.5178 14.14970476613656
SL-16 R/B               
1 23343U 94074B   25204.62645737  .00000448  00000+0  67188-4 0  9991
2 23343  97.7376 239.4175 0005322 240.9991 232.0883 14.79075368653384
SL-16 R/B               
1 23405U 94077B   25204.88227880 -.00000220  00000+0 -88150-4 0  9998
2 23405  70.9829 113.8430 0002537 205.9195 154.1801 14.15521170584126
ARIANE 40+ R/B          
1 23561U 95021B   25204.45401449  .00000263  00000+0  98116-4 0  9997
2 23561  98.4820 273.6354 0007968 107.0342 263.7175 14.39554036586265
SL-16 R/B               
1 23705U 95058B   25204.59525119  .00000280  00000+0  16771-3 0  9998
2 23705  71.0222 301.2213 0010647 112.7764 247.4485 14.15452625535430
SL-16 R/B               
1 24298U 96051B   25204.63187083 -.00000163  00000+0 -61764-4 0  9994
2 24298  70.7663 300.0347 0013487 117.9136 242.3351 14.12405798489309
ORBVIEW 2 (SEASTAR)     
1 24883U 97037A   25204.42866533  .00000226  00000+0  95318-4 0  9990
2 24883  98.8304 358.0575 0002696  39.9498 320.1884 14.35273071475585
SL-16 R/B               
1 25400U 98043G   25204.57212083  .00000057  00000+0  42727-4 0  9993
2 25400  98.7890 151.7903 0009196 324.8188  35.2384 14.25979386406334
SL-16 R/B               
1 25407U 98045B   25204.57712903 -.00000027  00000+0  10275-4 0  9999
2 25407  71.0127 303.3768 0007340 356.8557   3.2519 14.16148102394667
ISS (ZARYA)             
1 25544U 98067A   25204.82343111  .00009030  00000+0  16581-3 0  9991
2 25544  51.6344 125.4774 0002359 111.9505 304.3927 15.50035709520848
CZ-4B R/B               
1 25732U 99025C   25204.60024329  .00000077  00000+0  58185-4 0  9997
2 25732  98.6975 248.8733 0036034 283.9578 191.7782 14.18199091355694
OKEAN-O                 
1 25860U 99039A   25204.60755190  .00000653  00000+0  93576-4 0  9994
2 25860  97.9813 261.3787 0001463  69.5644 290.5724 14.79850931400507
SL-16 R/B               
1 25861U 99039B   25204.74175259  .00000522  00000+0  73706-4 0  9990
2 25861  98.0338 258.7140 0013554 280.9315  79.0372 14.81321044403090
DELTA 2 R/B             
1 25876U 99041E   25204.50047926  .00002754  00000+0  48309-3 0  9991
2 25876  51.7607 135.9790 0506969  32.4702 330.6376 14.10850171330667
HELIOS 1B               
1 25977U 99064A   25204.67441748  .00001305  00000+0  15380-3 0  9990
2 25977  98.1903  95.1386 0002498  88.9725 271.1776 14.86570905382522
TERRA                   
1 25994U 99068A   25204.82216855  .00000441  00000+0  99636-4 0  9996
2 25994  97.9960 261.5364 0002602 153.6720 318.0144 14.60740159361785
SL-16 R/B               
1 26070U 00006B   25204.46260377 -.00000213  00000+0 -84248-4 0  9996
2 26070  70.9999 219.8019 0016347 178.6765 181.4404 14.15778543316110
TITAN 4B R/B            
1 26474U 00047B   25204.80406800  .00003342  00000+0  22343-3 0  9991
2 26474  67.9919 323.0050 0047733 295.2002  64.4201 15.07388762358474
ENVISAT                 
1 27386U 02009A   25204.84429241  .00000095  00000+0  44703-4 0  9999
2 27386  98.3358 159.3818 0001308  83.4647 330.3606 14.38929651226338
IDEFIX & ARIANE 42P R/B 
1 27422U 02021B   25204.84053061  .00000231  00000+0  10467-3 0  9998
2 27422  98.5609 141.5477 0012539 136.8756 223.3412 14.30812491209394
AQUA                    
1 27424U 02022A   25204.83901185  .00000872  00000+0  18630-3 0  9990
2 27424  98.3798 163.6563 0000804  65.0860 354.7725 14.61360438235348
CZ-4B R/B               
1 27432U 02024C   25204.75956944  .00000047  00000+0  47575-4 0  9990
2 27432  98.9212 253.8420 0049395 313.6935 154.1181 14.14492219196953
MIDORI II (ADEOS-II)    
1 27597U 02056A   25204.59053963  .00000261  00000+0  12083-3 0  9991
2 27597  98.7396 157.0045 0000839  25.9541 334.1682 14.29072007177578
H-2A R/B                
1 27601U 02056E   25204.51833328  .00000280  00000+0  11258-3 0  9994
2 27601  98.2816 169.1367 0071462 124.0426 347.5514 14.33529041181274
CZ-4B R/B               
1 28059U 03049C   25204.56902863  .00000305  00000+0  82127-4 0  9993
2 28059  98.6618 185.8813 0047782 209.7853 150.0621 14.54712125153286
CZ-2C R/B               
1 28222U 04012C   25204.57149676  .00023579  00000+0  48440-3 0  9999
2 28222  97.7643 246.5063 0023736  68.6722 291.7056 15.45697665168708
